NORAD_CAT_ID,OBJECT_NAME,OBJECT_TYPE,EPOCH,MEAN_MOTION,ECCENTRICITY,INCLINATION,RA_OF_ASC_NODE,ARG_OF_PERICENTER,MEAN_ANOMALY,BSTAR,MEAN_MOTION_DOT,MEAN_MOTION_DDOT,TLE_LINE0,TLE_LINE1,TLE_LINE2,SEMIMAJOR_AXIS,PERIOD,APOGEE,PERIGEE,DECAYED
53844.0,STARLINK-4745,PAYLOAD,2024-03-10 22:04:29,15.08841599,0.0001488,53.2179,325.5875,90.3857,269.7306,1.8608e-05,8e-08,0.0,0 STARLINK-4745,1 53844U 22114AC  24070.91978360  .00000008  00000-0  18608-4 0  9995,2 53844  53.2179 325.5875 0001488  90.3857 269.7306 15.08841599 82958,6917.876,95.437,540.77,538.711,0.0
53844.0,STARLINK-4745,PAYLOAD,2024-03-11 02:50:39,15.08807176,0.000152,53.2178,324.696,86.584,273.5326,0.00045589,6.969e-05,0.0,0 STARLINK-4745,1 53844U 22114AC  24071.11851128  .00006969  00000-0  45589-3 0  9999,2 53844  53.2178 324.6960 0001520  86.5840 273.5326 15.08807176 82440,6917.981,95.44,540.897,538.794,0.0
53844.0,STARLINK-4745,PAYLOAD,2024-03-11 17:09:07,15.08835782,0.0001263,53.2175,322.0189,88.335,271.7787,-1.7778e-05,-5.71e-06,0.0,0 STARLINK-4745,1 53844U 22114AC  24071.71466866 -.00000571  00000-0 -17778-4 0  9991,2 53844  53.2175 322.0189 0001263  88.3350 271.7787 15.08835782 82537,6917.893,95.438,540.632,538.885,0.0
53844.0,STARLINK-4745,PAYLOAD,2024-03-12 23:21:27,15.0883131,0.0001322,53.2174,316.3702,88.9596,271.1548,2.5646e-05,1.2e-06,0.0,0 STARLINK-4745,1 53844U 22114AC  24072.97323386  .00000120  00000-0  25646-4 0  9990,2 53844  53.2174 316.3702 0001322  88.9596 271.1548 15.08831310 83260,6917.907,95.438,540.686,538.857,0.0
53844.0,STARLINK-4745,PAYLOAD,2024-03-13 08:53:46,15.08835266,0.0001399,53.2183,314.5859,88.7233,271.3919,5.6924e-05,6.18e-06,0.0,0 STARLINK-4745,1 53844U 22114AC  24073.37067203  .00000618  00000-0  56924-4 0  9993,2 53844  53.2183 314.5859 0001399  88.7233 271.3919 15.08835266 83328,6917.895,95.438,540.728,538.792,0.0
53844.0,STARLINK-4745,PAYLOAD,2024-03-13 21:36:49,15.08856594,0.0001471,53.2184,312.2083,82.3041,277.8118,0.00022992,3.375e-05,0.0,0 STARLINK-4745,1 53844U 22114AC  24073.90057168  .00003375  00000-0  22992-3 0  9991,2 53844  53.2184 312.2083 0001471  82.3041 277.8118 15.08856594 82868,6917.83,95.437,540.712,538.677,0.0
53844.0,STARLINK-4745,PAYLOAD,2024-03-14 02:23:00,15.08828556,0.0001576,53.2184,311.3147,81.9257,278.1914,-1.2049e-06,-3.07e-06,0.0,0 STARLINK-4745,1 53844U 22114AC  24074.09931595 -.00000307  00000-0 -12049-5 0  9995,2 53844  53.2184 311.3147 0001576  81.9257 278.1914 15.08828556 82897,6917.915,95.438,540.871,538.69,0.0
53844.0,STARLINK-4745,PAYLOAD,2024-03-14 21:27:38,15.08831245,0.0001322,53.2183,307.7451,78.1188,281.9953,-2.4241e-05,-6.74e-06,0.0,0 STARLINK-4745,1 53844U 22114AC  24074.89419917 -.00000674  00000-0 -24241-4 0  9995,2 53844  53.2183 307.7451 0001322  78.1188 281.9953 15.08831245 83551,6917.907,95.438,540.687,538.858,0.0
53844.0,STARLINK-4745,PAYLOAD,2024-03-15 14:56:52,15.08842353,0.0001265,53.2175,304.4759,83.9038,276.2099,-3.9009e-05,-9.09e-06,0.0,0 STARLINK-4745,1 53844U 22114AC  24075.62283387 -.00000909  00000-0 -39009-4 0  9996,2 53844  53.2175 304.4759 0001265  83.9038 276.2099 15.08842353 83124,6917.873,95.437,540.613,538.863,0.0
53844.0,STARLINK-4745,PAYLOAD,2024-03-16 14:47:40,15.0883424,0.0001421,53.2174,300.0161,88.3272,271.7883,0.00011911,1.608e-05,0.0,0 STARLINK-4745,1 53844U 22114AC  24076.61643534  .00001608  00000-0  11911-3 0  9996,2 53844  53.2174 300.0161 0001421  88.3272 271.7883 15.08834240 83818,6917.898,95.438,540.746,538.78,0.0
53844.0,STARLINK-4745,PAYLOAD,2024-03-16 21:09:12,15.08840404,0.0001359,53.217,298.8273,86.5335,273.5813,0.00010062,1.314e-05,0.0,0 STARLINK-4745,1 53844U 22114AC  24076.88139332  .00001314  00000-0  10062-3 0  9991,2 53844  53.2170 298.8273 0001359  86.5335 273.5813 15.08840404 83319,6917.879,95.438,540.684,538.804,0.0
53844.0,STARLINK-4745,PAYLOAD,2024-03-17 00:19:58,15.08843476,0.0001308,53.2169,298.231,93.8852,266.2289,0.00012604,1.719e-05,0.0,0 STARLINK-4745,1 53844U 22114AC  24077.01387026  .00001719  00000-0  12604-3 0  9995,2 53844  53.2169 298.2310 0001308  93.8852 266.2289 15.08843476 83871,6917.87,95.437,540.64,538.83,0.0
53844.0,STARLINK-4745,PAYLOAD,2024-03-17 20:59:59,15.08840062,0.0001513,53.2174,294.3648,111.1784,248.937,6.1306e-05,6.88e-06,0.0,0 STARLINK-4745,1 53844U 22114AC  24077.87499327  .00000688  00000-0  61306-4 0  9995,2 53844  53.2174 294.3648 0001513 111.1784 248.9370 15.08840062 84006,6917.88,95.438,540.792,538.699,0.0
53844.0,STARLINK-4745,PAYLOAD,2024-03-18 00:10:45,15.08841329,0.0001435,53.2169,293.7693,107.6327,252.4822,6.8435e-05,8.01e-06,0.0,0 STARLINK-4745,1 53844U 22114AC  24078.00747235  .00000801  00000-0  68435-4 0  9992,2 53844  53.2169 293.7693 0001435 107.6327 252.4822 15.08841329 83489,6917.876,95.437,540.734,538.749,0.0
53844.0,STARLINK-4745,PAYLOAD,2024-03-18 20:50:45,15.08850833,0.0001428,53.217,289.9036,110.4422,249.6724,7.8997e-05,9.7e-06,0.0,0 STARLINK-4745,1 53844U 22114AC  24078.86858255  .00000970  00000-0  78997-4 0  9992,2 53844  53.2170 289.9036 0001428 110.4422 249.6724 15.08850833 83613,6917.847,95.437,540.7,538.724,0.0
53844.0,STARLINK-4745,PAYLOAD,2024-03-19 00:01:31,15.08858306,0.0001535,53.2179,289.3016,130.7943,229.3183,4.6962e-05,4.6e-06,0.0,0 STARLINK-4745,1 53844U 22114AC  24079.00105669  .00000460  00000-0  46962-4 0  9994,2 53844  53.2179 289.3016 0001535 130.7943 229.3183 15.08858306 84175,6917.824,95.436,540.751,538.628,0.0
53844.0,STARLINK-4745,PAYLOAD,2024-03-19 19:06:10,15.08832767,9.37e-05,53.2158,285.7407,79.3849,280.7248,-6.2956e-05,-1.289e-05,0.0,0 STARLINK-4745,1 53844U 22114AC  24079.79595225 -.00001289  00000-0 -62956-4 0  9994,2 53844  53.2158 285.7407 0000937  79.3849 280.7248 15.08832767 83753,6917.902,95.438,540.416,539.119,0.0
53844.0,STARLINK-4745,PAYLOAD,2024-03-20 22:07:44,15.08843371,0.000103,53.2167,280.6869,89.4823,270.6287,-0.00026934,-4.572e-05,0.0,0 STARLINK-4745,1 53844U 22114AC  24080.92203732 -.00004572  00000-0 -26934-3 0  9993,2 53844  53.2167 280.6869 0001030  89.4823 270.6287 15.08843371 84461,6917.87,95.437,540.448,539.023,0.0
53844.0,STARLINK-4745,PAYLOAD,2024-03-21 12:26:10,15.08891688,0.0001276,53.2163,278.0101,68.586,291.5268,-0.00093839,-0.00015212,0.0,0 STARLINK-4745,1 53844U 22114AC  24081.51817291 -.00015212  00000-0 -93839-3 0  9991,2 53844  53.2163 278.0101 0001276  68.5860 291.5268 15.08891688 84014,6917.722,95.434,540.47,538.705,0.0
53844.0,STARLINK-4745,PAYLOAD,2024-03-21 20:23:07,15.08835855,8.58e-05,53.2166,276.5249,78.7026,281.4062,0.00023755,3.494e-05,0.0,0 STARLINK-4745,1 53844U 22114AC  24081.84939394  .00003494  00000-0  23755-3 0  9993,2 53844  53.2166 276.5249 0000858  78.7026 281.4062 15.08835855 84064,6917.893,95.438,540.352,539.165,0.0
53844.0,STARLINK-4745,PAYLOAD,2024-03-21 21:58:30,15.08842987,7.81e-05,53.2153,276.224,117.845,242.2621,0.00038229,5.802e-05,0.0,0 STARLINK-4745,1 53844U 22114AC  24081.91563185  .00005802  00000-0  38229-3 0  9999,2 53844  53.2153 276.2240 0000781 117.8450 242.2621 15.08842987 84610,6917.871,95.437,540.277,539.196,0.0
53844.0,STARLINK-4745,PAYLOAD,2024-03-22 20:13:56,15.08811545,9.32e-05,53.2159,272.0649,98.055,262.0548,-0.00018834,-3.281e-05,0.0,0 STARLINK-4745,1 53844U 22114AC  24082.84301118 -.00003281  00000-0 -18834-3 0  9999,2 53844  53.2159 272.0649 0000932  98.0550 262.0548 15.08811545 84212,6917.967,95.439,540.477,539.188,0.0
53844.0,STARLINK-4745,PAYLOAD,2024-03-22 21:49:19,15.08812271,9.7e-05,53.2154,271.7676,98.8115,261.2987,-0.00034848,-5.825e-05,0.0,0 STARLINK-4745,1 53844U 22114AC  24082.90924791 -.00005825  00000-0 -34848-3 0  9993,2 53844  53.2154 271.7676 0000970  98.8115 261.2987 15.08812271 84765,6917.965,95.439,540.501,539.159,0.0
53844.0,STARLINK-4745,PAYLOAD,2024-03-23 18:29:20,15.08834576,9.29e-05,53.2161,267.9018,58.8102,301.2981,0.00032175,4.836e-05,0.0,0 STARLINK-4745,1 53844U 22114AC  24083.77038145  .00004836  00000-0  32175-3 0  9998,2 53844  53.2161 267.9018 0000929  58.8102 301.2981 15.08834576 84352,6917.897,95.438,540.405,539.119,0.0
53844.0,STARLINK-4745,PAYLOAD,2024-03-24 05:37:02,15.08853873,0.0001422,53.2178,265.8142,110.9627,249.1517,0.00066632,0.00010336,0.0,0 STARLINK-4745,1 53844U 22114AC  24084.23405427  .00010336  00000-0  66632-3 0  9998,2 53844  53.2178 265.8142 0001422 110.9627 249.1517 15.08853873 84420,6917.838,95.437,540.687,538.719,0.0
53844.0,STARLINK-4745,PAYLOAD,2024-03-24 21:30:51,15.08894354,0.0001289,53.2149,262.8444,95.7807,264.3332,0.0013895,0.00021928,0.0,0 STARLINK-4745,1 53844U 22114AC  24084.89643270  .00021928  00000-0  13895-2 0  9991,2 53844  53.2149 262.8444 0001289  95.7807 264.3332 15.08894354 84525,6917.714,95.434,540.471,538.688,0.0
53844.0,STARLINK-4745,PAYLOAD,2024-03-25 05:27:48,15.08844566,0.0001444,53.2153,261.3565,96.0384,264.0773,-0.00015582,-2.767e-05,0.0,0 STARLINK-4745,1 53844U 22114AC  24085.22764147 -.00002767  00000-0 -15582-3 0  9994,2 53844  53.2153 261.3565 0001444  96.0384 264.0773 15.08844566 84576,6917.866,95.437,540.73,538.732,0.0
53844.0,STARLINK-4745,PAYLOAD,2024-03-25 18:10:53,15.08832699,0.0001443,53.2169,258.9796,88.2771,271.8386,-0.00050989,-8.392e-05,0.0,0 STARLINK-4745,1 53844U 22114AC  24085.75756586 -.00008392  00000-0 -50989-3 0  9990,2 53844  53.2169 258.9796 0001443  88.2771 271.8386 15.08832699 84652,6917.903,95.438,540.766,538.769,0.0
53844.0,STARLINK-4745,PAYLOAD,2024-03-26 11:40:08,15.08839857,0.0001599,53.218,255.7089,86.17,273.9475,0.00012607,1.719e-05,0.0,0 STARLINK-4745,1 53844U 22114AC  24086.48620961  .00001719  00000-0  12607-3 0  9997,2 53844  53.2180 255.7089 0001599  86.1700 273.9475 15.08839857 84763,6917.881,95.438,540.852,538.64,0.0
53844.0,STARLINK-4745,PAYLOAD,2024-03-26 14:50:55,15.08831437,0.0001446,53.2177,255.1143,90.0435,270.0723,0.00062144,9.614e-05,0.0,0 STARLINK-4745,1 53844U 22114AC  24086.61869568  .00009614  00000-0  62144-3 0  9993,2 53844  53.2177 255.1143 0001446  90.0435 270.0723 15.08831437 85327,6917.907,95.438,540.772,538.771,0.0
